#aV2019 10  1  0  0  0.00000000     288 DD+AD WGS84 FIT  NGA
## 2073 172800.00000000   300.00000000 58757 0.0000000000000
+   31     1  2  3  5  6  7  8  9 10 11 12 13 14 15 16 17 18
+         19 20 21 22 23 24 25 26 27 28 29 30 31 32  0  0  0
+          0  0  0  0  0  0  0  0  0  0  0  0  0  0  0  0  0
+          0  0  0  0  0  0  0  0  0  0  0  0  0  0  0  0  0
+          0  0  0  0  0  0  0  0  0  0  0  0  0  0  0  0  0
++         2  2  2  2  2  2  2  2  2  2  2  2  2  2  2  2  2
++         2  2  2  2  2  2  2  2  2  2  2  2  2  2  0  0  0
++         0  0  0  0  0  0  0  0  0  0  0  0  0  0  0  0  0
++         0  0  0  0  0  0  0  0  0  0  0  0  0  0  0  0  0
++         0  0  0  0  0  0  0  0  0  0  0  0  0  0  0  0  0
%c cc cc ccc ccc cccc cccc cccc cccc ccccc ccccc ccccc ccccc
%c cc cc ccc ccc cccc cccc cccc cccc ccccc ccccc ccccc ccccc
%f  0.0000000  0.000000000  0.00000000000  0.000000000000000
%f  0.0000000  0.000000000  0.00000000000  0.000000000000000
%i    0    0    0    0      0      0      0      0         0
%i    0    0    0    0      0      0      0      0         0
/*      NGA, ST. LOUIS,MO.                                  
/*   EPHEMERIS COMPUTED FROM 2 DAYS OF DATA                 
/*   EPOCHA v5 SMOOTHER                                     
/*   G1762 IERS2010 SATAF SATAPC                            
*  2019 10  1  1 20  0.00000000
P  1 -22308.620929 -14140.611414   3911.964208   -146.817949                    
V  1  -2814.278473  -4784.680254 -31394.367499     -0.131151                    
P  2   9907.150889  19793.993495  15389.421818   -316.402475                    
V  2 -16305.860018  -8761.924960  22560.305324     -0.080323                    
P  3 -13673.234758  -8365.268784  21135.791158    -16.904814                    
V  3   4289.888101 -26608.795614  -7647.433815     -0.044611                    
P  5   4056.851072  24477.150695  -9337.755394     -1.896092                    
V  5  -4214.685755  11354.415834  28546.155822     -0.003678                    
P  6  -4851.526559  14703.087999  21618.629869    -75.138436                    
V  6 -21903.593288 -16314.262280   6216.996434     -0.127577                    
P  7 -20749.362018  -1591.084962 -16492.420375   -117.562717                    
V  7 -15581.197289 -14632.792274  20192.994778     -0.080027                    
P  8 -14766.281406  -8797.267430 -20271.497850     -8.339129                    
V  8  23339.700566 -10860.435639 -12063.293145     -0.012833                    
P  9 -25160.833703   6952.915384   4871.583079    -44.857741                    
V  9   4578.986090  -5201.286451  30767.722144     -0.098492                    
P 10  11431.414096 -20347.361470 -12411.387619    -75.592378                    
V 10    277.725567  16115.579316 -26245.170518     -0.156792                    
P 11 -24227.586787  -9307.885434  -5350.299648   -491.566271                    
V 11   7049.981657  -3049.659836 -29783.702762      0.112558                    
P 12  10794.399508  13609.657095  19926.286826    198.644177                    
V 12  -6079.019137  24958.890669 -13451.056556     -0.038616                    
P 13   4597.581827  14397.914889 -21956.947736    -41.408736                    
V 13 -26616.154000   7215.977376   -780.354461      0.021209                    
P 14   9969.758749 -16654.717480  18375.268264    -58.533926                    
V 14  22133.620497  -5431.096005 -17419.360400      0.020065                    
P 15  16663.901556   7761.964383 -19577.156568   -283.141011                    
V 15 -20840.116803  12486.495960 -12585.013012      0.027232                    
P 16    -51.605610 -25033.242172  -8371.984739    -79.049532                    
V 16   4570.764871  -9698.700528  30060.917295     -0.035474                    
P 17 -18521.435259  14931.032313  12134.155856    135.679050                    
V 17 -14489.052900   3234.834042 -27107.861801      0.071931                    
P 18 -19268.840397 -17773.601512  -5095.662398     89.719267                    
V 18   6358.369933   1057.507483 -30700.276343      0.028342                    
P 19 -13520.563960  15488.099486  16532.826145   -259.958326                    
V 19 -21040.987448   4673.536521 -21177.956450      0.052300                    
P 20  14311.608160 -11753.154529 -19080.052558    527.053448                    
V 20   1497.734603  24190.612381 -14034.614125      0.001160                    
P 21  18000.377260  -3615.207505 -18336.439613   -109.877735                    
V 21  19644.906413  15640.596517  15732.361979      0.063525                    
P 22 -12304.233180 -15863.485559  17654.631217   -759.928370                    
V 22   3350.930766 -21905.034123 -17469.622597     -0.034918                    
P 23 -22334.093473  -2058.357414  14865.510026   -163.966409                    
V 23  15842.498423  -9140.207199  22687.672541      0.020919                    
P 24  22466.603140  14459.384773   1183.333551     -2.838634                    
V 24   -455.256046   3628.043773 -30965.491925     -0.004779                    
P 25  15195.487337  -2328.144956  21417.735667    -14.074385                    
V 25  -3264.015211  27523.535515   5503.478741     -0.012049                    
P 26   4511.745794 -25960.369726   2366.660866     51.226169                    
V 26   2975.572126   3385.033135  31436.825829      0.086841                    
P 27  -1671.094591 -15170.174906 -21816.890494    -72.931732                    
V 27  25544.060984  -9971.466423   5296.828367     -0.123539                    
P 28 -12421.423416  20347.469666 -11213.270885    760.568855                    
V 28   1479.110365 -15166.119481 -27569.990253     -0.011659                    
P 29  25388.114380  -3624.621966   6928.129985     83.437307                    
V 29  -7761.880498   4586.008904  30668.134318     -0.103205                    
P 30 -13330.047090   8967.900899 -21139.981196    -51.954745                    
V 30 -20336.252808 -17725.997029   5101.106159     -0.080677                    
P 31   3678.651292 -15903.670824  20853.048446      6.739748                    
V 31  21212.210182  16094.215993   8972.069141     -0.025624                    
P 32  17844.869726 -16058.193137  11286.487216     75.774656                    
V 32  14183.595284  -3117.219711 -27131.668859      0.132664                    
EOF
